{
  "type": "FeatureCollection",
  "features": [
    {
      "type": "Feature",
      "properties": {
        "norad_id": 34972,
        "name": "COSMOS 2251 DEB",
        "group": "cosmos-2251-debris",
        "lat": -9.977626725354948,
        "lon": 32.16360207718686,
        "alt_km": 676.9054699089156,
        "timestamp": "2025-12-20T07:33:51.208680+00:00",
        "meta_object_name": "COSMOS 2251 DEB",
        "meta_object_id": "1993-036AFB",
        "meta_epoch": "2025-12-19T02:24:29.780352",
        "meta_mean_motion": 14.72980369,
        "meta_eccentricity": 0.00332141,
        "meta_inclination": 73.988,
        "meta_ra_of_asc_node": 37.4318,
        "meta_arg_of_pericenter": 195.1149,
        "meta_mean_anomaly": 195.1869,
        "meta_ephemeris_type": 0,
        "meta_classification_type": "U",
        "meta_norad_cat_id": 34972,
        "meta_element_set_no": 999,
        "meta_rev_at_epoch": 87744,
        "meta_bstar": 0.00092049297,
        "meta_mean_motion_dot": 5.933e-05,
        "meta_mean_motion_ddot": 0,
        "tle_line1": "1 34972U 93036AFB 25353.10034468  .00005933  00000+0  92049-3 0  9996",
        "tle_line2": "2 34972  73.9880  37.4318 0033214 195.1149 195.1869 14.72980369877449"
      },
      "geometry": {
        "type": "Point",
        "coordinates": [
          32.16360207718686,
          -9.977626725354948
        ]
      }
    },
    {
      "type": "Feature",
      "properties": {
        "norad_id": 34976,
        "name": "COSMOS 2251 DEB",
        "group": "cosmos-2251-debris",
        "lat": -3.8210851928603127,
        "lon": 112.51740603278029,
        "alt_km": 672.6411056069619,
        "timestamp": "2025-12-20T07:33:51.208690+00:00",
        "meta_object_name": "COSMOS 2251 DEB",
        "meta_object_id": "1993-036AFF",
        "meta_epoch": "2025-12-19T07:01:41.426112",
        "meta_mean_motion": 14.76702512,
        "meta_eccentricity": 0.0047838,
        "meta_inclination": 74.0575,
        "meta_ra_of_asc_node": 293.4233,
        "meta_arg_of_pericenter": 338.8144,
        "meta_mean_anomaly": 172.6692,
        "meta_ephemeris_type": 0,
        "meta_classification_type": "U",
        "meta_norad_cat_id": 34976,
        "meta_element_set_no": 999,
        "meta_rev_at_epoch": 88370,
        "meta_bstar": 0.0011372,
        "meta_mean_motion_dot": 8.087e-05,
        "meta_mean_motion_ddot": 0,
        "tle_line1": "1 34976U 93036AFF 25353.29284058  .00008087  00000+0  11372-2 0  9994",
        "tle_line2": "2 34976  74.0575 293.4233 0047838 338.8144 172.6692 14.76702512883700"
      },
      "geometry": {
        "type": "Point",
        "coordinates": [
          112.51740603278029,
          -3.8210851928603127
        ]
      }
    },
    {
      "type": "Feature",
      "properties": {
        "norad_id": 34979,
        "name": "COSMOS 2251 DEB",
        "group": "cosmos-2251-debris",
        "lat": -49.40952367080191,
        "lon": -127.15340301693821,
        "alt_km": 605.2828635522728,
        "timestamp": "2025-12-20T07:33:51.208701+00:00",
        "meta_object_name": "COSMOS 2251 DEB",
        "meta_object_id": "1993-036AFJ",
        "meta_epoch": "2025-12-19T10:42:00.055872",
        "meta_mean_motion": 14.79466797,
        "meta_eccentricity": 0.0049167,
        "meta_inclination": 74.0402,
        "meta_ra_of_asc_node": 254.0683,
        "meta_arg_of_pericenter": 330.6854,
        "meta_mean_anomaly": 29.1564,
        "meta_ephemeris_type": 0,
        "meta_classification_type": "U",
        "meta_norad_cat_id": 34979,
        "meta_element_set_no": 999,
        "meta_rev_at_epoch": 88319,
        "meta_bstar": 0.00076473,
        "meta_mean_motion_dot": 5.8e-05,
        "meta_mean_motion_ddot": 0,
        "tle_line1": "1 34979U 93036AFJ 25353.44583398  .00005800  00000+0  76473-3 0  9997",
        "tle_line2": "2 34979  74.0402 254.0683 0049167 330.6854  29.1564 14.79466797883191"
      },
      "geometry": {
        "type": "Point",
        "coordinates": [
          -127.15340301693821,
          -49.40952367080191
        ]
      }
    },
    {
      "type": "Feature",
      "properties": {
        "norad_id": 34990,
        "name": "COSMOS 2251 DEB",
        "group": "cosmos-2251-debris",
        "lat": 53.700457324823965,
        "lon": 34.37586390632964,
        "alt_km": 756.9632062069304,
        "timestamp": "2025-12-20T07:33:51.208711+00:00",
        "meta_object_name": "COSMOS 2251 DEB",
        "meta_object_id": "1993-036AFN",
        "meta_epoch": "2025-12-15T10:28:28.781472",
        "meta_mean_motion": 14.42382837,
        "meta_eccentricity": 0.00165597,
        "meta_inclination": 74.0457,
        "meta_ra_of_asc_node": 246.3361,
        "meta_arg_of_pericenter": 308.9911,
        "meta_mean_anomaly": 50.977,
        "meta_ephemeris_type": 0,
        "meta_classification_type": "U",
        "meta_norad_cat_id": 34990,
        "meta_element_set_no": 999,
        "meta_rev_at_epoch": 87385,
        "meta_bstar": 0.00031884459,
        "meta_mean_motion_dot": 1.029e-05,
        "meta_mean_motion_ddot": 0,
        "tle_line1": "1 34990U 93036AFN 25349.43644423  .00001029  00000+0  31884-3 0  9997",
        "tle_line2": "2 34990  74.0457 246.3361 0016559 308.9911  50.9770 14.42382837873857"
      },
      "geometry": {
        "type": "Point",
        "coordinates": [
          34.37586390632964,
          53.700457324823965
        ]
      }
    },
    {
      "type": "Feature",
      "properties": {
        "norad_id": 34997,
        "name": "COSMOS 2251 DEB",
        "group": "cosmos-2251-debris",
        "lat": 17.09635381175332,
        "lon": -57.957671502769564,
        "alt_km": 760.186388971525,
        "timestamp": "2025-12-20T07:33:51.208721+00:00",
        "meta_object_name": "COSMOS 2251 DEB",
        "meta_object_id": "1993-036AFV",
        "meta_epoch": "2025-12-14T03:40:01.084512",
        "meta_mean_motion": 14.45585468,
        "meta_eccentricity": 0.00977103,
        "meta_inclination": 73.8806,
        "meta_ra_of_asc_node": 308.5363,
        "meta_arg_of_pericenter": 283.3348,
        "meta_mean_anomaly": 75.6929,
        "meta_ephemeris_type": 0,
        "meta_classification_type": "U",
        "meta_norad_cat_id": 34997,
        "meta_element_set_no": 999,
        "meta_rev_at_epoch": 70767,
        "meta_bstar": 0.0019000145,
        "meta_mean_motion_dot": 7.095e-05,
        "meta_mean_motion_ddot": 0,
        "tle_line1": "1 34997U 93036AFV 25348.15279033  .00007095  00000+0  19000-2 0  9997",
        "tle_line2": "2 34997  73.8806 308.5363 0097710 283.3348  75.6929 14.45585468707674"
      },
      "geometry": {
        "type": "Point",
        "coordinates": [
          -57.957671502769564,
          17.09635381175332
        ]
      }
    },
    {
      "type": "Feature",
      "properties": {
        "norad_id": 34998,
        "name": "COSMOS 2251 DEB",
        "group": "cosmos-2251-debris",
        "lat": -3.621186530598198,
        "lon": 144.7138519140782,
        "alt_km": 724.867290574909,
        "timestamp": "2025-12-20T07:33:51.208731+00:00",
        "meta_object_name": "COSMOS 2251 DEB",
        "meta_object_id": "1993-036AFW",
        "meta_epoch": "2025-12-18T21:30:12.356640",
        "meta_mean_motion": 14.493061,
        "meta_eccentricity": 0.00213351,
        "meta_inclination": 74.0096,
        "meta_ra_of_asc_node": 148.4189,
        "meta_arg_of_pericenter": 293.0415,
        "meta_mean_anomaly": 221.403,
        "meta_ephemeris_type": 0,
        "meta_classification_type": "U",
        "meta_norad_cat_id": 34998,
        "meta_element_set_no": 999,
        "meta_rev_at_epoch": 87509,
        "meta_bstar": 0.00045734953,
        "meta_mean_motion_dot": 1.723e-05,
        "meta_mean_motion_ddot": 0,
        "tle_line1": "1 34998U 93036AFW 25352.89597635  .00001723  00000+0  45735-3 0  9992",
        "tle_line2": "2 34998  74.0096 148.4189 0021335 293.0415 221.4030 14.49306100875093"
      },
      "geometry": {
        "type": "Point",
        "coordinates": [
          144.7138519140782,
          -3.621186530598198
        ]
      }
    },
    {
      "type": "Feature",
      "properties": {
        "norad_id": 35012,
        "name": "COSMOS 2251 DEB",
        "group": "cosmos-2251-debris",
        "lat": -45.160661789384264,
        "lon": -65.65234378582544,
        "alt_km": 689.1566451142717,
        "timestamp": "2025-12-20T07:33:51.208742+00:00",
        "meta_object_name": "COSMOS 2251 DEB",
        "meta_object_id": "1993-036AFZ",
        "meta_epoch": "2025-12-17T08:45:06.225696",
        "meta_mean_motion": 14.45554969,
        "meta_eccentricity": 0.00815478,
        "meta_inclination": 74.0209,
        "meta_ra_of_asc_node": 103.105,
        "meta_arg_of_pericenter": 242.2771,
        "meta_mean_anomaly": 117.0098,
        "meta_ephemeris_type": 0,
        "meta_classification_type": "U",
        "meta_norad_cat_id": 35012,
        "meta_element_set_no": 999,
        "meta_rev_at_epoch": 87628,
        "meta_bstar": 0.00015311641,
        "meta_mean_motion_dot": 5.34e-06,
        "meta_mean_motion_ddot": 0,
        "tle_line1": "1 35012U 93036AFZ 25351.36465539  .00000534  00000+0  15312-3 0  9995",
        "tle_line2": "2 35012  74.0209 103.1050 0081547 242.2771 117.0098 14.45554969876284"
      },
      "geometry": {
        "type": "Point",
        "coordinates": [
          -65.65234378582544,
          -45.160661789384264
        ]
      }
    }
  ]
}